
IRIDIUM 110
1 43481U 18047F   26170.20757351  .00000166  00000+0  52148-4 0  9992
2 43481  86.3961  87.5848 0002550  81.3134 278.8350 14.34218104422769

IRIDIUM 116
1 43072U 17083C   26170.16850868 -.00000010  00000+0 -10720-4 0  9999
2 43072  86.3960 321.1729 0001907 100.1079 260.0332 14.34217427444452

IRIDIUM 130
1 43073U 17083D   26170.13679109  .00000166  00000+0  52353-4 0  9992
2 43073  86.3974 321.4614 0001950  93.5048 266.6371 14.34219527444394

IRIDIUM 131
1 43079U 17083K   26170.14313769  .00000082  00000+0  22231-4 0  9995
2 43079  86.3971 321.3585 0002217  92.1691 267.9759 14.34217441444385

IRIDIUM 134
1 43075U 17083F   26169.94017617 -.00000032  00000+0 -18361-4 0  9996
2 43075  86.3964 321.3342 0002009  92.3530 267.7896 14.34217103444359

IRIDIUM 135
1 43070U 17083A   26170.17485244 -.00000015  00000+0 -12243-4 0  9997
2 43070  86.3962 321.1843 0002078  91.9400 268.2034 14.34217201444431

IRIDIUM 137
1 43076U 17083G   26170.16216646 -.00000002  00000+0 -77846-5 0  9997
2 43076  86.3966 321.3343 0002221 104.1844 255.9598 14.34217497444454

IRIDIUM 138
1 43071U 17083B   26170.13045319  .00000057  00000+0  13395-4 0  9992
2 43071  86.3979 320.8983 0002301  86.9790 273.1669 14.34217687444411

IRIDIUM 140
1 43252U 18030D   26170.29828096  .00000033  00000+0  48885-5 0  9991
2 43252  86.3959 289.5498 0002144  93.9765 266.1676 14.34217529430495

IRIDIUM 141
1 43077U 17083H   26170.15582353  .00000000  00000+0 -69824-5 0  9992
2 43077  86.3965 321.1672 0002209  91.1671 268.9778 14.34217549444458

IRIDIUM 142
1 43256U 18030H   26170.27291060  .00000007  00000+0 -46144-5 0  9996
2 43256  86.3954 289.4771 0002040  99.3754 260.7672 14.34217292430437

IRIDIUM 143
1 43258U 18030K   26170.29193824  .00000064  00000+0  15946-4 0  9996
2 43258  86.3964 289.6780 0002117  96.6848 263.4589 14.34217618430395

IRIDIUM 144
1 43249U 18030A   26170.25388200  .00000247  00000+0  81182-4 0  9994
2 43249  86.3960 289.5355 0002125  97.5063 262.6374 14.34217892430438

IRIDIUM 145
1 43253U 18030E   26170.28559545  .00000042  00000+0  78084-5 0  9995
2 43253  86.3960 289.5273 0002046 101.7336 258.4089 14.34217547430427

IRIDIUM 146
1 43254U 18030F   26169.70841587  .00000156  00000+0  48463-4 0  9994
2 43254  86.3960 289.7809 0002136  97.0236 263.1203 14.34219252430359

IRIDIUM 147
1 43480U 18047E   26170.20123053  .00000037  00000+0  60034-5 0  9998
2 43480  86.3960  87.4955 0002159  86.3678 273.7765 14.34217583422773

IRIDIUM 148
1 43255U 18030G   26170.30462361  .00000007  00000+0 -47260-5 0  9993
2 43255  86.3958 289.5750 0002166  96.3626 263.7817 14.34217473430471

IRIDIUM 149
1 43250U 18030B   26170.26022517  .00000069  00000+0  17651-4 0  9995
2 43250  86.3958 289.4999 0002269  93.6383 266.5073 14.34217840430455

IRIDIUM 150
1 43257U 18030J   26170.31096558  .00000045  00000+0  89602-5 0  9994
2 43257  86.3961 289.5774 0002155  93.9312 266.2130 14.34217768430468

IRIDIUM 151
1 43074U 17083E   26170.18119489 -.00000009  00000+0 -10247-4 0  9992
2 43074  86.3962 321.2254 0002056  93.4912 266.6519 14.34217268444425

IRIDIUM 152
1 43479U 18047D   26170.19488818  .00000252  00000+0  83079-4 0  9999
2 43479  86.3957  87.4930 0002314  82.6527 277.4932 14.34218065422778

IRIDIUM 153
1 43078U 17083J   26170.31730836  .00000040  00000+0  71950-5 0  9998
2 43078  86.3961 289.5800 0002227  89.6766 270.4685 14.34217738445582

IRIDIUM 155
1 43573U 18061E   26170.20414871  .00000040  00000+0  73773-5 0  9996
2 43573  86.3957  55.8299 0002099  83.2577 276.8858 14.34217854413643

IRIDIUM 157
1 43251U 18030C   26170.27925318  .00000006  00000+0 -50014-5 0  9991
2 43251  86.3957 289.5455 0002104  94.1692 265.9745 14.34217386430432

IRIDIUM 158
1 43571U 18061C   26170.21683422  .00000107  00000+0  31054-4 0  9994
2 43571  86.3960  55.9093 0002201  82.8375 277.3071 14.34217800413659

IRIDIUM 160
1 43569U 18061A   26170.22317706 -.00000012  00000+0 -11269-4 0  9994
2 43569  86.3958  55.9460 0002179  85.7031 274.4413 14.34217426413669

IRIDIUM 161
1 43478U 18047C   26170.24892127  .00000309  00000+0  85742-4 0  9998
2 43478  86.4482  87.6093 0002570  83.5617 276.5876 14.43279622425436

IRIDIUM 162
1 43482U 18047G   26170.24262364  .00000275  00000+0  75754-4 0  9991
2 43482  86.4481  87.5030 0002253  82.4721 277.6736 14.43282760425425

IRIDIUM 165
1 43572U 18061D   26170.24220456  .00000048  00000+0  99861-5 0  9997
2 43572  86.3961  55.9451 0002075  87.2566 272.8868 14.34217438413683

IRIDIUM 166
1 43570U 18061B   26170.17877848  .00000014  00000+0 -19481-5 0  9994
2 43570  86.3958  55.9150 0002009  86.8129 273.3296 14.34217614413687
