OBJECT_NAME,OBJECT_ID,EPOCH,MEAN_MOTION,ECCENTRICITY,INCLINATION,RA_OF_ASC_NODE,ARG_OF_PERICENTER,MEAN_ANOMALY,EPHEMERIS_TYPE,CLASSIFICATION_TYPE,NORAD_CAT_ID,ELEMENT_SET_NO,REV_AT_EPOCH,BSTAR,MEAN_MOTION_DOT,MEAN_MOTION_DDOT
IRIDIUM 135,2017-083A,2026-06-19T04:11:47.250816,14.34217201,.00020783,86.3962,321.1843,91.9400,268.2034,0,U,43070,999,44443,-.12243064E-4,-.15E-6,0
IRIDIUM 138,2017-083B,2026-06-19T03:07:51.155616,14.34217687,.0002301,86.3979,320.8983,86.9790,273.1669,0,U,43071,999,44441,.13394933E-4,.57E-6,0
IRIDIUM 116,2017-083C,2026-06-19T04:02:39.149952,14.34217427,.00019076,86.3960,321.1729,100.1079,260.0332,0,U,43072,999,44445,-.10720019E-4,-.1E-6,0
IRIDIUM 130,2017-083D,2026-06-19T03:16:58.750176,14.34219527,.000195,86.3974,321.4614,93.5048,266.6371,0,U,43073,999,44439,.52352808E-4,.166E-5,0
IRIDIUM 151,2017-083E,2026-06-19T04:20:55.238496,14.34217268,.00020567,86.3962,321.2254,93.4912,266.6519,0,U,43074,999,44442,-.10246587E-4,-.9E-7,0
IRIDIUM 134,2017-083F,2026-06-18T22:33:51.221088,14.34217103,.0002009,86.3964,321.3342,92.3530,267.7896,0,U,43075,999,44435,-.18361E-4,-.32E-6,0
IRIDIUM 137,2017-083G,2026-06-19T03:53:31.182144,14.34217497,.00022213,86.3966,321.3343,104.1844,255.9598,0,U,43076,999,44445,-.7784558E-5,-.2E-7,0
IRIDIUM 141,2017-083H,2026-06-19T03:44:23.152992,14.34217549,.0002209,86.3965,321.1672,91.1671,268.9778,0,U,43077,999,44445,-.6982417E-5,0,0
IRIDIUM 153,2017-083J,2026-06-19T07:36:55.442304,14.34217738,.00022279,86.3961,289.5800,89.6766,270.4685,0,U,43078,999,44558,.719497E-5,.4E-6,0
IRIDIUM 131,2017-083K,2026-06-19T03:26:07.096416,14.34217441,.00022177,86.3971,321.3585,92.1691,267.9759,0,U,43079,999,44438,.22231464E-4,.82E-6,0
IRIDIUM 144,2018-030A,2026-06-19T06:05:35.404800,14.34217892,.00021251,86.3960,289.5355,97.5063,262.6374,0,U,43249,999,43043,.81182292E-4,.247E-5,0
IRIDIUM 149,2018-030B,2026-06-19T06:14:43.454688,14.34217840,.00022697,86.3958,289.4999,93.6383,266.5073,0,U,43250,999,43045,.17650806E-4,.69E-6,0
IRIDIUM 157,2018-030C,2026-06-19T06:42:07.474752,14.34217386,.00021043,86.3957,289.5455,94.1692,265.9745,0,U,43251,999,43043,-.5001406E-5,.6E-7,0
IRIDIUM 140,2018-030D,2026-06-19T07:09:31.474944,14.34217529,.0002144,86.3959,289.5498,93.9765,266.1676,0,U,43252,999,43049,.4888458E-5,.33E-6,0
IRIDIUM 145,2018-030E,2026-06-19T06:51:15.446880,14.34217547,.00020461,86.3960,289.5273,101.7336,258.4089,0,U,43253,999,43042,.780841E-5,.42E-6,0
IRIDIUM 146,2018-030F,2026-06-18T17:00:07.131168,14.34219252,.00021368,86.3960,289.7809,97.0236,263.1203,0,U,43254,999,43035,.48463356E-4,.156E-5,0
IRIDIUM 148,2018-030G,2026-06-19T07:18:39.479904,14.34217473,.00021665,86.3958,289.5750,96.3626,263.7817,0,U,43255,999,43047,-.4725985E-5,.7E-7,0
IRIDIUM 142,2018-030H,2026-06-19T06:32:59.475840,14.34217292,.00020407,86.3954,289.4771,99.3754,260.7672,0,U,43256,999,43043,-.4614362E-5,.7E-7,0
IRIDIUM 150,2018-030J,2026-06-19T07:27:47.426112,14.34217768,.00021553,86.3961,289.5774,93.9312,266.2130,0,U,43257,999,43046,.8960213E-5,.45E-6,0
IRIDIUM 143,2018-030K,2026-06-19T07:00:23.463936,14.34217618,.00021178,86.3964,289.6780,96.6848,263.4589,0,U,43258,999,43039,.15945904E-4,.64E-6,0
IRIDIUM 161,2018-047C,2026-06-19T05:58:26.797728,14.43279622,.000257,86.4482,87.6093,83.5617,276.5876,0,U,43478,999,42543,.85742051E-4,.309E-5,0
IRIDIUM 152,2018-047D,2026-06-19T04:40:38.338752,14.34218065,.00023141,86.3957,87.4930,82.6527,277.4932,0,U,43479,999,42277,.83078757E-4,.252E-5,0
IRIDIUM 147,2018-047E,2026-06-19T04:49:46.317792,14.34217583,.00021593,86.3960,87.4955,86.3678,273.7765,0,U,43480,999,42277,.6003392E-5,.37E-6,0
IRIDIUM 110,2018-047F,2026-06-19T04:58:54.351264,14.34218104,.00025503,86.3961,87.5848,81.3134,278.8350,0,U,43481,999,42276,.52148218E-4,.166E-5,0
IRIDIUM 162,2018-047G,2026-06-19T05:49:22.682496,14.43282760,.00022538,86.4481,87.5030,82.4721,277.6736,0,U,43482,999,42542,.757541E-4,.275E-5,0
IRIDIUM 160,2018-061A,2026-06-19T05:21:22.497984,14.34217426,.00021795,86.3958,55.9460,85.7031,274.4413,0,U,43569,999,41366,-.11268569E-4,-.12E-6,0
IRIDIUM 166,2018-061B,2026-06-19T04:17:26.460672,14.34217614,.00020096,86.3958,55.9150,86.8129,273.3296,0,U,43570,999,41368,-.1948125E-5,.14E-6,0
IRIDIUM 158,2018-061C,2026-06-19T05:12:14.476608,14.34217800,.00022015,86.3960,55.9093,82.8375,277.3071,0,U,43571,999,41365,.3105421E-4,.107E-5,0
IRIDIUM 165,2018-061D,2026-06-19T05:48:46.473984,14.34217438,.00020756,86.3961,55.9451,87.2566,272.8868,0,U,43572,999,41368,.9986056E-5,.48E-6,0
IRIDIUM 155,2018-061E,2026-06-19T04:53:58.448544,14.34217854,.00020998,86.3957,55.8299,83.2577,276.8858,0,U,43573,999,41364,.7377313E-5,.4E-6,0
